STARLINK-37662          
1 69137U 26110P   26159.16672454 -.02838582  00000+0 -39162-1 0  9993
2 69137  97.2851 355.5028 0000595  83.6345 258.4756 15.60686963  4209
STARLINK-37658          
1 69138U 26110Q   26159.16672454 -.00838047  00000+0 -15318-1 0  9995
2 69138  97.2854 355.4478 0001831  93.2438 109.5883 15.51868801  4205
STARLINK-37659          
1 69139U 26110R   26159.16672454 -.00294004  00000+0 -55768-2 0  9999
2 69139  97.2859 355.4287 0001406  89.6772  74.9172 15.49348235  4204
STARLINK-37653          
1 69140U 26110S   26159.16672454  .00025590  00000+0  47086-3 0  9996
2 69140  97.2860 355.4242 0001316 104.8695  46.0253 15.49176969  4206
STARLINK-37654          
1 69141U 26110T   26159.16672454 -.02556862  00000+0 -37142-1 0  9992
2 69141  97.2850 355.5089 0001494  76.5338 281.4394 15.59564083  4202
STARLINK-37655          
1 69142U 26110U   26159.16672454 -.01340116  00000+0 -15825-1 0  9999
2 69142  97.2851 355.5266 0001486  65.1119 332.9793 15.64307229  4201
STARLINK-37636          
1 69143U 26110V   26159.16672454 -.02652117  00000+0 -23108-1 0  9991
2 69143  97.2847 355.5703 0002041  88.8352  48.9420 15.72342738  4206
STARLINK-37638          
1 69144U 26110W   26159.16672454 -.02689003  00000+0 -22938-1 0  9996
2 69144  97.2845 355.5735 0002010  88.0997  57.1336 15.72889051  4205
STARLINK-37657          
1 69145U 26110X   26159.16672454 -.02603871  00000+0 -39399-1 0  9995
2 69145  97.2853 355.5118 0001530  82.5321 280.8353 15.58571884  4262
STARLINK-37639          
1 69146U 26110Y   26159.16672454 -.02630263  00000+0 -21930-1 0  9993
2 69146  97.2845 355.5786 0002088  89.8160  65.8002 15.73338095  4269
STARLINK-37661          
1 69147U 26110Z   26159.16672454 -.02504578  00000+0 -46669-1 0  9999
2 69147  97.2854 355.4725 0001913  92.0208 178.1144 15.52167910  4265
STARLINK-37395          
1 69148U 26111A   26159.10360043  .00198202  00000+0  98253-3 0  9990
2 69148  53.1589 197.1848 0000766  77.4962 282.6146 15.80923914  2826
STARLINK-37346          
1 69149U 26111B   26158.59680052  .00250605  00000+0  12302-2 0  9994
2 69149  53.1585 199.7124 0000787 100.4567 259.6544 15.80987715  2745
STARLINK-37332          
1 69150U 26111C   26159.16467309 -.00338869  00000+0 -18844-2 0  9996
2 69150  53.1591 196.8528 0007081 357.6257   2.4730 15.79596078  2833
STARLINK-37297          
1 69151U 26111D   26158.91268111  .00201082  00000+0  99472-3 0  9990
2 69151  53.1586 198.1266 0000963 123.2494 236.8621 15.80961309  2796
STARLINK-37317          
1 69152U 26111E   26158.91071821  .00190372  00000+0  94350-3 0  9990
2 69152  53.1586 198.1121 0000751 150.6811 209.4253 15.80952039  2796
STARLINK-37374          
1 69153U 26111F   26159.16672454 -.02535564  00000+0 -20103-1 0  9991
2 69153  53.1603 196.8458 0000952  79.9355 289.6408 15.73840107  4095
STARLINK-37235          
1 69154U 26111G   26159.16672454 -.02555721  00000+0 -26928-1 0  9990
2 69154  53.1601 196.9461 0000816  74.6318 245.8452 15.67149766  4098
STARLINK-37329          
1 69155U 26111H   26159.10082778  .00192476  00000+0  95419-3 0  9992
2 69155  53.1590 197.1654 0000721  55.8248 304.2842 15.80939743  2820
STARLINK-37345          
1 69156U 26111J   26158.40397310  .00324837  00000+0  15797-2 0  9994
2 69156  53.1585 200.6415 0002316 120.8458 239.2793 15.80989237  2711
STARLINK-37353          
1 69157U 26111K   26158.90950508  .00398109  00000+0  19154-2 0  9998
2 69157  53.1587 198.1056 0000848 142.9475 217.1606 15.81025694  2793
STARLINK-37363          
1 69158U 26111L   26159.09708963  .00212642  00000+0  10526-2 0  9997
2 69158  53.1585 197.1387 0001373  54.5636 305.5515 15.80914232  2828
STARLINK-37343          
1 69159U 26111M   26159.16672454 -.02595726  00000+0 -21399-1 0  9991
2 69159  53.1601 196.8354 0000859  81.6830 292.7700 15.73024396  4092
STARLINK-37328          
1 69160U 26111N   26159.00004630  .00055597  00000+0  28369-3 0  9990
2 69160  53.1589 197.6242 0001255  78.9824  89.2388 15.80850857  4073
STARLINK-37311          
1 69161U 26111P   26159.16672454 -.00001392  00000+0 -41769-5 0  9990
2 69161  53.1597 196.8093 0000548 125.6507 261.9923 15.78062852  4093
STARLINK-36286          
1 69162U 26111Q   26159.16672454  .00006219  00000+0  39627-4 0  9991
2 69162  53.1596 196.7988 0001019  74.0111 318.5500 15.78061088  4097
STARLINK-37196          
1 69163U 26111R   26159.00004630  .00058804  00000+0  34071-3 0  9994
2 69163  53.1593 197.6615 0000939 111.3345  38.2671 15.78020591  4073
STARLINK-36288          
1 69164U 26111S   26159.09960372  .00186497  00000+0  10532-2 0  9993
2 69164  53.1597 197.1562 0001108  65.4112 294.7025 15.78085957  2824
STARLINK-37445          
1 69165U 26111T   26159.16672454  .00014159  00000+0  85268-4 0  9998
2 69165  53.1596 196.7840 0000772  99.6941 299.8056 15.78050734  4099
STARLINK-37491          
1 69166U 26111U   26159.09880954  .00190755  00000+0  10765-2 0  9992
2 69166  53.1592 197.1504 0000608 100.6613 259.4477 15.78087366  2824
