OBJECT_NAME,OBJECT_ID,EPOCH,MEAN_MOTION,ECCENTRICITY,INCLINATION,RA_OF_ASC_NODE,ARG_OF_PERICENTER,MEAN_ANOMALY,EPHEMERIS_TYPE,CLASSIFICATION_TYPE,NORAD_CAT_ID,ELEMENT_SET_NO,REV_AT_EPOCH,BSTAR,MEAN_MOTION_DOT,MEAN_MOTION_DDOT
STARLINK-37662,2026-110P,2026-06-08T04:00:05.000256,15.60686963,.0000595,97.2851,355.5028,83.6345,258.4756,0,U,69137,999,420,-.39162E-1,-.2838582E-1,0
STARLINK-37658,2026-110Q,2026-06-08T04:00:05.000256,15.51868801,.0001831,97.2854,355.4478,93.2438,109.5883,0,U,69138,999,420,-.15318E-1,-.838047E-2,0
STARLINK-37659,2026-110R,2026-06-08T04:00:05.000256,15.49348235,.0001406,97.2859,355.4287,89.6772,74.9172,0,U,69139,999,420,-.55768E-2,-.294004E-2,0
STARLINK-37653,2026-110S,2026-06-08T04:00:05.000256,15.49176969,.0001316,97.2860,355.4242,104.8695,46.0253,0,U,69140,999,420,.47086E-3,.2559E-3,0
STARLINK-37654,2026-110T,2026-06-08T04:00:05.000256,15.59564083,.0001494,97.2850,355.5089,76.5338,281.4394,0,U,69141,999,420,-.37142E-1,-.2556862E-1,0
STARLINK-37655,2026-110U,2026-06-08T04:00:05.000256,15.64307229,.0001486,97.2851,355.5266,65.1119,332.9793,0,U,69142,999,420,-.15825E-1,-.1340116E-1,0
STARLINK-37636,2026-110V,2026-06-08T04:00:05.000256,15.72342738,.0002041,97.2847,355.5703,88.8352,48.9420,0,U,69143,999,420,-.23108E-1,-.2652117E-1,0
STARLINK-37638,2026-110W,2026-06-08T04:00:05.000256,15.72889051,.000201,97.2845,355.5735,88.0997,57.1336,0,U,69144,999,420,-.22938E-1,-.2689003E-1,0
STARLINK-37657,2026-110X,2026-06-08T04:00:05.000256,15.58571884,.000153,97.2853,355.5118,82.5321,280.8353,0,U,69145,999,426,-.39399E-1,-.2603871E-1,0
STARLINK-37639,2026-110Y,2026-06-08T04:00:05.000256,15.73338095,.0002088,97.2845,355.5786,89.8160,65.8002,0,U,69146,999,426,-.2193E-1,-.2630263E-1,0
STARLINK-37661,2026-110Z,2026-06-08T04:00:05.000256,15.52167910,.0001913,97.2854,355.4725,92.0208,178.1144,0,U,69147,999,426,-.46669E-1,-.2504578E-1,0
STARLINK-37395,2026-111A,2026-06-08T02:29:11.077152,15.80923914,.0000766,53.1589,197.1848,77.4962,282.6146,0,U,69148,999,282,.98253E-3,.198202E-2,0
STARLINK-37346,2026-111B,2026-06-07T14:19:23.564928,15.80987715,.0000787,53.1585,199.7124,100.4567,259.6544,0,U,69149,999,274,.12302E-2,.250605E-2,0
STARLINK-37332,2026-111C,2026-06-08T03:57:07.754976,15.79596078,.0007081,53.1591,196.8528,357.6257,2.4730,0,U,69150,999,283,-.18844E-2,-.338869E-2,0
STARLINK-37297,2026-111D,2026-06-07T21:54:15.647904,15.80961309,.0000963,53.1586,198.1266,123.2494,236.8621,0,U,69151,999,279,.99472E-3,.201082E-2,0
STARLINK-37317,2026-111E,2026-06-07T21:51:26.053344,15.80952039,.0000751,53.1586,198.1121,150.6811,209.4253,0,U,69152,999,279,.9435E-3,.190372E-2,0
STARLINK-37374,2026-111F,2026-06-08T04:00:05.000256,15.73840107,.0000952,53.1603,196.8458,79.9355,289.6408,0,U,69153,999,409,-.20103E-1,-.2535564E-1,0
STARLINK-37235,2026-111G,2026-06-08T04:00:05.000256,15.67149766,.0000816,53.1601,196.9461,74.6318,245.8452,0,U,69154,999,409,-.26928E-1,-.2555721E-1,0
STARLINK-37329,2026-111H,2026-06-08T02:25:11.520192,15.80939743,.0000721,53.1590,197.1654,55.8248,304.2842,0,U,69155,999,282,.95419E-3,.192476E-2,0
STARLINK-37345,2026-111J,2026-06-07T09:41:43.275840,15.80989237,.0002316,53.1585,200.6415,120.8458,239.2793,0,U,69156,999,271,.15797E-2,.324837E-2,0
STARLINK-37353,2026-111K,2026-06-07T21:49:41.238912,15.81025694,.0000848,53.1587,198.1056,142.9475,217.1606,0,U,69157,999,279,.19154E-2,.398109E-2,0
STARLINK-37363,2026-111L,2026-06-08T02:19:48.544032,15.80914232,.0001373,53.1585,197.1387,54.5636,305.5515,0,U,69158,999,282,.10526E-2,.212642E-2,0
STARLINK-37343,2026-111M,2026-06-08T04:00:05.000256,15.73024396,.0000859,53.1601,196.8354,81.6830,292.7700,0,U,69159,999,409,-.21399E-1,-.2595726E-1,0
STARLINK-37328,2026-111N,2026-06-08T00:00:04.000320,15.80850857,.0001255,53.1589,197.6242,78.9824,89.2388,0,U,69160,999,407,.28369E-3,.55597E-3,0
STARLINK-37311,2026-111P,2026-06-08T04:00:05.000256,15.78062852,.0000548,53.1597,196.8093,125.6507,261.9923,0,U,69161,999,409,-.41769E-5,-.1392E-4,0
STARLINK-36286,2026-111Q,2026-06-08T04:00:05.000256,15.78061088,.0001019,53.1596,196.7988,74.0111,318.5500,0,U,69162,999,409,.39627E-4,.6219E-4,0
STARLINK-37196,2026-111R,2026-06-08T00:00:04.000320,15.78020591,.0000939,53.1593,197.6615,111.3345,38.2671,0,U,69163,999,407,.34071E-3,.58804E-3,0
STARLINK-36288,2026-111S,2026-06-08T02:23:25.761408,15.78085957,.0001108,53.1597,197.1562,65.4112,294.7025,0,U,69164,999,282,.10532E-2,.186497E-2,0
STARLINK-37445,2026-111T,2026-06-08T04:00:05.000256,15.78050734,.0000772,53.1596,196.7840,99.6941,299.8056,0,U,69165,999,409,.85268E-4,.14159E-3,0
STARLINK-37491,2026-111U,2026-06-08T02:22:17.144256,15.78087366,.0000608,53.1592,197.1504,100.6613,259.4477,0,U,69166,999,282,.10765E-2,.190755E-2,0
